STARLINK-5826           
1 55782U 23028AT  26068.76930971 -.00000996  00000+0 -75635-4 0  9991
2 55782  69.9986 204.4326 0004001 275.9334  84.1369 14.98361608167039
SHIYAN-24C 02           
1 58651U 23206B   26068.89175597  .00002770  00000+0  23935-3 0  9991
2 58651  97.3985  41.8071 0003465  80.6641 279.4974 14.97980163120443
